<?xml version="1.0" encoding="UTF-8"?>
<kml xmlns="http://earth.google.com/kml/2.1">
<Document>
   <name>Satellite image overlay - EJ20090214_5m_res.jpg</name>
     <GroundOverlay>
          <name>EJ20090214__5m_res.jpg</name>
          <description>IKONOS image overlay © CRISP 2009</description>
          <Icon>
               <href>EJ20090214_5m_res.jpg</href>
          </Icon>
          <LatLonBox>
               <north>-7.510027778</north>
               <south>-7.546389</south>
               <east>112.7335</east>
               <west>112.6997222</west>
          </LatLonBox>
     </GroundOverlay>
</Document>
</kml>
